PROBA-1                 
1 26958U 01049B   22270.46717565  .00001494  00000+0  12998-3 0  9997
2 26958  97.8338 230.3901 0071574   5.1461 355.0480 14.96605856139737
BIRD 2                  
1 26959U 01049C   22270.55388973  .00018780  00000+0  37700-3 0  9999
2 26959  97.7631   9.4069 0006323  16.0755 344.0692 15.46712319162716
CUTE-1 (CO-55)          
1 27844U 03031E   22269.99704466  .00000215  00000+0  11581-3 0  9994
2 27844  98.6813 276.1614 0010115 161.7885 198.3657 14.22499002998348
CUBESAT XI-IV (CO-57)   
1 27848U 03031J   22269.00679217  .00000186  00000+0  10370-3 0  9997
2 27848  98.6856 275.6837 0009713 178.7743 181.3460 14.22049355997977
GENESIS 1               
1 29252U 06029A   22269.65006212  .00003989  00000+0  17946-3 0  9998
2 29252  64.5208  98.6040 0054885 246.6941 112.8403 15.21377441894360
FALCONSAT-3             
1 30776U 07006E   22270.47257414  .00077598  00000+0  87462-3 0  9998
2 30776  35.4295 308.4370 0002269 209.0252 151.0356 15.61325471865495
GENESIS 2               
1 31789U 07028A   22269.99355961  .00003763  00000+0  17508-3 0  9995
2 31789  64.4952 140.9119 0055965 299.4115  60.1429 15.20289827841397
APRIZESAT 4             
1 35684U 09041D   22270.00645020  .00000532  00000+0  77182-4 0  9998
2 35684  98.3098 287.1293 0047322  27.4702 332.8995 14.79741219710133
APRIZESAT 3             
1 35686U 09041F   22270.17499320  .00001113  00000+0  12221-3 0  9996
2 35686  98.1045 359.1050 0071220 213.0428 146.6328 14.88070182713787
PROBA-2                 
1 36037U 09059B   22270.05317934  .00000147  00000+0  46040-4 0  9996
2 36037  98.2250  94.7471 0013913 151.1825 209.0142 14.53295244684105
APRIZESAT 5             
1 37792U 11044E   22270.13610977  .00000612  00000+0  95024-4 0  9997
2 37792  98.3082 148.4801 0058607  41.1449 319.4156 14.75851131598147
APRIZESAT 6             
1 37793U 11044F   22270.16041959  .00000452  00000+0  77990-4 0  9993
2 37793  98.3888 125.6312 0047838  93.0288  23.9660 14.72863376596985
TET-1                   
1 38710U 12039D   22270.17753556  .00147048  00000+0  65442-3 0  9993
2 38710  97.5026 359.2457 0000243 220.6389 139.4862 15.83917110573435
PROBA-V                 
1 39159U 13021A   22269.96664166  .00000027  00000+0  30128-4 0  9995
2 39159  98.3497 300.7089 0004842 142.1439 218.0081 14.23049310487767
STPSAT-3                
1 39380U 13064A   22269.85344383  .00037481  00000+0  66271-3 0  9993
2 39380  40.4969 145.5889 0009365 311.9502  48.0518 15.49512290495003
APRIZESAT 7             
1 39416U 13066A   22270.46762284  .00001020  00000+0  12506-3 0  9990
2 39416  97.5835 245.5556 0041352  24.0608 336.2527 14.84592510479208
APRIZESAT 8             
1 39425U 13066K   22270.49353281  .00000856  00000+0  11250-3 0  9997
2 39425  97.6390 237.1684 0052864  67.0505 293.6274 14.81726774478344
BUGSAT-1 (TITA)         
1 40014U 14033E   22270.54464375  .00001953  00000+0  17348-3 0  9994
2 40014  98.1469 273.1590 0031892  60.3959 300.0432 14.97044380451417
SAUDISAT 4              
1 40016U 14033G   22269.81229641  .00000448  00000+0  71452-4 0  9994
2 40016  97.6397  99.0867 0048205 170.8836 189.3261 14.75631953445349
APRIZESAT 9             
1 40018U 14033J   22270.41706205  .00000513  00000+0  89781-4 0  9997
2 40018  97.7257  75.5883 0069699 245.7200 113.6716 14.70337268443767
APRIZESAT 10            
1 40019U 14033K   22270.44040071  .00000360  00000+0  69047-4 0  9996
2 40019  97.7819  65.4805 0082540 291.2753  67.9653 14.67372467442938
TDS 1                   
1 40076U 14037H   22270.13250131  .00002165  00000+0  25463-3 0  9997
2 40076  98.3747 148.4320 0008057  99.3405 260.8720 14.85977223444880
TIANTUO 2               
1 40144U 14053B   22270.36398933  .00006052  00000+0  15916-3 0  9990
2 40144  97.1878 348.3095 0010389 182.4867 241.9782 15.38887460450769
TECHNOSAT               
1 42829U 17042E   22270.16030043  .00001139  00000+0  11707-3 0  9991
2 42829  97.4098 118.3228 0014839  32.6187 327.5947 14.92072829283252
FLYING LAPTOP           
1 42831U 17042G   22270.14375685  .00001409  00000+0  14409-3 0  9998
2 42831  97.4120 118.6431 0014760  33.2956 326.9192 14.91948656283258
HAWK-A                  
1 43765U 18099H   22269.86088056  .00001996  00000+0  17662-3 0  9993
2 43765  97.6096 335.2727 0012988 292.4640  67.5207 14.97349118208316
HAWK-B                  
1 43794U 18099AN  22270.12856761  .00002231  00000+0  19680-3 0  9997
2 43794  97.6097 335.5334 0013048 291.7339  68.2494 14.97352072208343
HAWK-C                  
1 43799U 18099AT  22269.86107260  .00002008  00000+0  17767-3 0  9990
2 43799  97.6094 335.1799 0012944 292.4726  67.5126 14.97350512209058
SALSAT                  
1 46495U 20068K   22269.57638659  .00002654  00000+0  19162-3 0  9992
2 46495  97.7366 210.9608 0014762 298.2016  61.7718 15.04902601109392
